{"type": "FeatureCollection", "features": [ {"type": "Feature", "properties": {"norad_id": 30344, "name": "FENGYUN 1C DEB", "group": "fengyun-1c-debris", "lat": -74.76758556204075, "lon": -154.89279286037123, "alt_km": 730.569293611582, "timestamp": "2025-12-04T05:42:43.648707+00:00", "meta": {"OBJECT_NAME": "FENGYUN 1C DEB", "OBJECT_ID": "1999-025ABF", "EPOCH": "2025-12-03T19:11:40.256736", "MEAN_MOTION": 14.51455141, "ECCENTRICITY": 0.0008462, "INCLINATION": 98.8215, "RA_OF_ASC_NODE": 59.4189, "ARG_OF_PERICENTER": 145.0199, "MEAN_ANOMALY": 343.8371, "EPHEMERIS_TYPE": 0, "CLASSIFICATION_TYPE": "U", "NORAD_CAT_ID": 30344, "ELEMENT_SET_NO": 999, "REV_AT_EPOCH": 97947, "BSTAR": 0.0039086135, "MEAN_MOTION_DOT": 0.00015601, "MEAN_MOTION_DDOT": 0}, "tle": {"line1": "1 30344U 99025ABF 25337.79977149  .00015601  00000+0  39086-2 0  9992", "line2": "2 30344  98.8215  59.4189 0008462 145.0199 343.8371 14.51455141979470"}}, "geometry": {"type": "Point", "coordinates": [-154.89279286037123, -74.76758556204075]}}, {"type": "Feature", "properties": {"norad_id": 30345, "name": "FENGYUN 1C DEB", "group": "fengyun-1c-debris", "lat": -68.58517637157473, "lon": -166.37785040854936, "alt_km": 749.5794014630355, "timestamp": "2025-12-04T05:42:43.648718+00:00", "meta": {"OBJECT_NAME": "FENGYUN 1C DEB", "OBJECT_ID": "1999-025ABG", "EPOCH": "2025-12-03T01:53:52.311552", "MEAN_MOTION": 14.41449495, "ECCENTRICITY": 0.00165241, "INCLINATION": 98.922, "RA_OF_ASC_NODE": 36.0248, "ARG_OF_PERICENTER": 270.424, "MEAN_ANOMALY": 89.5054, "EPHEMERIS_TYPE": 0, "CLASSIFICATION_TYPE": "U", "NORAD_CAT_ID": 30345, "ELEMENT_SET_NO": 999, "REV_AT_EPOCH": 97634, "BSTAR": 0.0027605169, "MEAN_MOTION_DOT": 8.932e-05, "MEAN_MOTION_DDOT": 0}, "tle": {"line1": "1 30345U 99025ABG 25337.07907768  .00008932  00000+0  27605-2 0  9997", "line2": "2 30345  98.9220  36.0248 0016524 270.4240  89.5054 14.41449495976342"}}, "geometry": {"type": "Point", "coordinates": [-166.37785040854936, -68.58517637157473]}}, {"type": "Feature", "properties": {"norad_id": 30346, "name": "FENGYUN 1C DEB", "group": "fengyun-1c-debris", "lat": -19.73277763678216, "lon": -108.40086941000065, "alt_km": 819.0346178711452, "timestamp": "2025-12-04T05:42:43.648728+00:00", "meta": {"OBJECT_NAME": "FENGYUN 1C DEB", "OBJECT_ID": "1999-025ABH", "EPOCH": "2025-12-03T19:16:39.078912", "MEAN_MOTION": 14.33732404, "ECCENTRICITY": 0.0055907, "INCLINATION": 98.8096, "RA_OF_ASC_NODE": 74.3454, "ARG_OF_PERICENTER": 50.9476, "MEAN_ANOMALY": 65.8036, "EPHEMERIS_TYPE": 0, "CLASSIFICATION_TYPE": "U", "NORAD_CAT_ID": 30346, "ELEMENT_SET_NO": 999, "REV_AT_EPOCH": 97285, "BSTAR": 0.0030573649, "MEAN_MOTION_DOT": 8.604e-05, "MEAN_MOTION_DDOT": 0}, "tle": {"line1": "1 30346U 99025ABH 25337.80323008  .00008604  00000+0  30574-2 0  9993", "line2": "2 30346  98.8096  74.3454 0055907  50.9476  65.8036 14.33732404972852"}}, "geometry": {"type": "Point", "coordinates": [-108.40086941000065, -19.73277763678216]}}, {"type": "Feature", "properties": {"norad_id": 30347, "name": "FENGYUN 1C DEB", "group": "fengyun-1c-debris", "lat": 45.02983793074809, "lon": 154.43383871090973, "alt_km": 807.0833582066607, "timestamp": "2025-12-04T05:42:43.648738+00:00", "meta": {"OBJECT_NAME": "FENGYUN 1C DEB", "OBJECT_ID": "1999-025ABJ", "EPOCH": "2025-12-03T19:13:07.637376", "MEAN_MOTION": 13.9276249, "ECCENTRICITY": 0.01508876, "INCLINATION": 98.3771, "RA_OF_ASC_NODE": 162.5203, "ARG_OF_PERICENTER": 58.4753, "MEAN_ANOMALY": 316.602, "EPHEMERIS_TYPE": 0, "CLASSIFICATION_TYPE": "U", "NORAD_CAT_ID": 30347, "ELEMENT_SET_NO": 999, "REV_AT_EPOCH": 95836, "BSTAR": 0.00026512611, "MEAN_MOTION_DOT": 3.4e-06, "MEAN_MOTION_DDOT": 0}, "tle": {"line1": "1 30347U 99025ABJ 25337.80078284  .00000340  00000+0  26513-3 0  9995", "line2": "2 30347  98.3771 162.5203 0150887  58.4753 316.6020 13.92762490958366"}}, "geometry": {"type": "Point", "coordinates": [154.43383871090973, 45.02983793074809]}}, {"type": "Feature", "properties": {"norad_id": 30348, "name": "FENGYUN 1C DEB", "group": "fengyun-1c-debris", "lat": 79.38168345913803, "lon": -50.88199772127571, "alt_km": 759.9677813833277, "timestamp": "2025-12-04T05:42:43.648748+00:00", "meta": {"OBJECT_NAME": "FENGYUN 1C DEB", "OBJECT_ID": "1999-025ABK", "EPOCH": "2025-12-03T18:09:05.753376", "MEAN_MOTION": 14.34931078, "ECCENTRICITY": 0.00176393, "INCLINATION": 98.8644, "RA_OF_ASC_NODE": 72.2748, "ARG_OF_PERICENTER": 45.9837, "MEAN_ANOMALY": 82.8327, "EPHEMERIS_TYPE": 0, "CLASSIFICATION_TYPE": "U", "NORAD_CAT_ID": 30348, "ELEMENT_SET_NO": 999, "REV_AT_EPOCH": 97405, "BSTAR": 0.0030090779, "MEAN_MOTION_DOT": 8.536e-05, "MEAN_MOTION_DDOT": 0}, "tle": {"line1": "1 30348U 99025ABK 25337.75631659  .00008536  00000+0  30091-2 0  9991", "line2": "2 30348  98.8644  72.2748 0017639  45.9837  82.8327 14.34931078974056"}}, "geometry": {"type": "Point", "coordinates": [-50.88199772127571, 79.38168345913803]}}, {"type": "Feature", "properties": {"norad_id": 30349, "name": "FENGYUN 1C DEB", "group": "fengyun-1c-debris", "lat": 80.79878634083929, "lon": -127.75386947706714, "alt_km": 807.1109764522716, "timestamp": "2025-12-04T05:42:43.648758+00:00", "meta": {"OBJECT_NAME": "FENGYUN 1C DEB", "OBJECT_ID": "1999-025ABL", "EPOCH": "2025-12-03T21:03:05.916384", "MEAN_MOTION": 14.10989383, "ECCENTRICITY": 0.00895774, "INCLINATION": 98.5833, "RA_OF_ASC_NODE": 300.7103, "ARG_OF_PERICENTER": 37.0501, "MEAN_ANOMALY": 16.9001, "EPHEMERIS_TYPE": 0, "CLASSIFICATION_TYPE": "U", "NORAD_CAT_ID": 30349, "ELEMENT_SET_NO": 999, "REV_AT_EPOCH": 96106, "BSTAR": 0.0031770325, "MEAN_MOTION_DOT": 5.888e-05, "MEAN_MOTION_DDOT": 0}, "tle": {"line1": "1 30349U 99025ABL 25337.87715181  .00005888  00000+0  31770-2 0  9990", "line2": "2 30349  98.5833 300.7103 0089577  37.0501  16.9001 14.10989383961068"}}, "geometry": {"type": "Point", "coordinates": [-127.75386947706714, 80.79878634083929]}}, {"type": "Feature", "properties": {"norad_id": 30350, "name": "FENGYUN 1C DEB", "group": "fengyun-1c-debris", "lat": 12.619765856720326, "lon": -20.385318411639485, "alt_km": 1110.4110010685545, "timestamp": "2025-12-04T05:42:43.648768+00:00", "meta": {"OBJECT_NAME": "FENGYUN 1C DEB", "OBJECT_ID": "1999-025ABM", "EPOCH": "2025-12-03T18:33:21.907008", "MEAN_MOTION": 13.82787416, "ECCENTRICITY": 0.02195057, "INCLINATION": 98.0929, "RA_OF_ASC_NODE": 157.3891, "ARG_OF_PERICENTER": 333.4842, "MEAN_ANOMALY": 41.6328, "EPHEMERIS_TYPE": 0, "CLASSIFICATION_TYPE": "U", "NORAD_CAT_ID": 30350, "ELEMENT_SET_NO": 999, "REV_AT_EPOCH": 94858, "BSTAR": 0.00092157584, "MEAN_MOTION_DOT": 1.17e-05, "MEAN_MOTION_DDOT": 0}, "tle": {"line1": "1 30350U 99025ABM 25337.77317022  .00001170  00000+0  92158-3 0  9991", "line2": "2 30350  98.0929 157.3891 0219505 333.4842  41.6328 13.82787416948588"}}, "geometry": {"type": "Point", "coordinates": [-20.385318411639485, 12.619765856720326]}}, {"type": "Feature", "properties": {"norad_id": 30352, "name": "FENGYUN 1C DEB", "group": "fengyun-1c-debris", "lat": 41.55324777802112, "lon": -8.290409747903597, "alt_km": 853.572937503387, "timestamp": "2025-12-04T05:42:43.648779+00:00", "meta": {"OBJECT_NAME": "FENGYUN 1C DEB", "OBJECT_ID": "1999-025ABP", "EPOCH": "2025-12-03T20:07:34.961376", "MEAN_MOTION": 14.07573889, "ECCENTRICITY": 0.00281843, "INCLINATION": 98.7649, "RA_OF_ASC_NODE": 359.1819, "ARG_OF_PERICENTER": 344.8496, "MEAN_ANOMALY": 194.3412, "EPHEMERIS_TYPE": 0, "CLASSIFICATION_TYPE": "U", "NORAD_CAT_ID": 30352, "ELEMENT_SET_NO": 999, "REV_AT_EPOCH": 96785, "BSTAR": 0.00024634733, "MEAN_MOTION_DOT": 3.74e-06, "MEAN_MOTION_DDOT": 0}, "tle": {"line1": "1 30352U 99025ABP 25337.83859909  .00000374  00000+0  24635-3 0  9995", "line2": "2 30352  98.7649 359.1819 0028184 344.8496 194.3412 14.07573889967856"}}, "geometry": {"type": "Point", "coordinates": [-8.290409747903597, 41.55324777802112]}}, {"type": "Feature", "properties": {"norad_id": 30355, "name": "FENGYUN 1C DEB", "group": "fengyun-1c-debris", "lat": 49.5533430844149, "lon": -27.35680371630313, "alt_km": 815.4521431376752, "timestamp": "2025-12-04T05:42:43.648790+00:00", "meta": {"OBJECT_NAME": "FENGYUN 1C DEB", "OBJECT_ID": "1999-025ABS", "EPOCH": "2025-12-02T06:09:21.187872", "MEAN_MOTION": 14.18773726, "ECCENTRICITY": 0.0053562, "INCLINATION": 98.5889, "RA_OF_ASC_NODE": 340.9358, "ARG_OF_PERICENTER": 340.0272, "MEAN_ANOMALY": 34.7296, "EPHEMERIS_TYPE": 0, "CLASSIFICATION_TYPE": "U", "NORAD_CAT_ID": 30355, "ELEMENT_SET_NO": 999, "REV_AT_EPOCH": 97202, "BSTAR": 0.00084805, "MEAN_MOTION_DOT": 1.745e-05, "MEAN_MOTION_DDOT": 0}, "tle": {"line1": "1 30355U 99025ABS 25336.25649523  .00001745  00000+0  84805-3 0  9990", "line2": "2 30355  98.5889 340.9358 0053562 340.0272  34.7296 14.18773726972023"}}, "geometry": {"type": "Point", "coordinates": [-27.35680371630313, 49.5533430844149]}}, {"type": "Feature", "properties": {"norad_id": 30356, "name": "FENGYUN 1C DEB", "group": "fengyun-1c-debris", "lat": 27.129785357653443, "lon": -30.753656147086257, "alt_km": 837.4605771188726, "timestamp": "2025-12-04T05:42:43.648800+00:00", "meta": {"OBJECT_NAME": "FENGYUN 1C DEB", "OBJECT_ID": "1999-025ABT", "EPOCH": "2025-12-03T23:02:23.815104", "MEAN_MOTION": 14.12997971, "ECCENTRICITY": 0.00522514, "INCLINATION": 98.6807, "RA_OF_ASC_NODE": 333.4664, "ARG_OF_PERICENTER": 314.2591, "MEAN_ANOMALY": 99.3619, "EPHEMERIS_TYPE": 0, "CLASSIFICATION_TYPE": "U", "NORAD_CAT_ID": 30356, "ELEMENT_SET_NO": 999, "REV_AT_EPOCH": 96897, "BSTAR": 0.0012057292, "MEAN_MOTION_DOT": 2.235e-05, "MEAN_MOTION_DDOT": 0}, "tle": {"line1": "1 30356U 99025ABT 25337.95999786  .00002235  00000+0  12057-2 0  9992", "line2": "2 30356  98.6807 333.4664 0052251 314.2591  99.3619 14.12997971968972"}}, "geometry": {"type": "Point", "coordinates": [-30.753656147086257, 27.129785357653443]}}]}